[{"OBJECT_NAME":"ONEWEB-0635","OBJECT_ID":"2023-043AG","EPOCH":"2026-04-28T04:11:15.835776","MEAN_MOTION":13.15548232,"ECCENTRICITY":0.0002079,"INCLINATION":87.896,"RA_OF_ASC_NODE":269.1616,"ARG_OF_PERICENTER":102.0524,"MEAN_ANOMALY":258.084,"EPHEMERIS_TYPE":0,"CLASSIFICATION_TYPE":"U","NORAD_CAT_ID":56076,"ELEMENT_SET_NO":999,"REV_AT_EPOCH":14985,"BSTAR":0.0004276,"MEAN_MOTION_DOT":1.74e-06,"MEAN_MOTION_DDOT":0.0},{"OBJECT_NAME":"ONEWEB-0636","OBJECT_ID":"2023-043AH","EPOCH":"2026-04-28T03:59:51.103680","MEAN_MOTION":13.15547369,"ECCENTRICITY":0.000201,"INCLINATION":87.8951,"RA_OF_ASC_NODE":269.1732,"ARG_OF_PERICENTER":101.84,"MEAN_ANOMALY":258.2956,"EPHEMERIS_TYPE":0,"CLASSIFICATION_TYPE":"U","NORAD_CAT_ID":56077,"ELEMENT_SET_NO":999,"REV_AT_EPOCH":14983,"BSTAR":-0.0001073,"MEAN_MOTION_DOT":-2.8e-07,"MEAN_MOTION_DDOT":0.0},{"OBJECT_NAME":"ONEWEB-0637","OBJECT_ID":"2023-043AJ","EPOCH":"2026-04-27T22:22:09.120864","MEAN_MOTION":13.15547824,"ECCENTRICITY":0.0001787,"INCLINATION":87.895,"RA_OF_ASC_NODE":269.2374,"ARG_OF_PERICENTER":108.0743,"MEAN_ANOMALY":252.0582,"EPHEMERIS_TYPE":0,"CLASSIFICATION_TYPE":"U","NORAD_CAT_ID":56078,"ELEMENT_SET_NO":999,"REV_AT_EPOCH":14982,"BSTAR":0.00022494,"MEAN_MOTION_DOT":9.8e-07,"MEAN_MOTION_DDOT":0.0},{"OBJECT_NAME":"ONEWEB-0647","OBJECT_ID":"2023-043AK","EPOCH":"2026-04-28T03:43:51.696480","MEAN_MOTION":13.15549557,"ECCENTRICITY":0.0001981,"INCLINATION":87.895,"RA_OF_ASC_NODE":269.2051,"ARG_OF_PERICENTER":96.3517,"MEAN_ANOMALY":263.7839,"EPHEMERIS_TYPE":0,"CLASSIFICATION_TYPE":"U","NORAD_CAT_ID":56079,"ELEMENT_SET_NO":999,"REV_AT_EPOCH":14984,"BSTAR":6.239099999999999e-05,"MEAN_MOTION_DOT":3.6e-07,"MEAN_MOTION_DDOT":0.0},{"OBJECT_NAME":"ONEWEB-0651","OBJECT_ID":"2023-043AL","EPOCH":"2026-04-28T07:16:04.660608","MEAN_MOTION":13.15548497,"ECCENTRICITY":0.0001947,"INCLINATION":87.895,"RA_OF_ASC_NODE":269.1699,"ARG_OF_PERICENTER":105.4526,"MEAN_ANOMALY":254.6819,"EPHEMERIS_TYPE":0,"CLASSIFICATION_TYPE":"U","NORAD_CAT_ID":56080,"ELEMENT_SET_NO":999,"REV_AT_EPOCH":15106,"BSTAR":0.00015617000000000002,"MEAN_MOTION_DOT":7.2e-07,"MEAN_MOTION_DDOT":0.0},{"OBJECT_NAME":"ONEWEB-0718","OBJECT_ID":"2023-043AM","EPOCH":"2026-04-28T03:30:11.632608","MEAN_MOTION":13.15547814,"ECCENTRICITY":0.0001313,"INCLINATION":87.895,"RA_OF_ASC_NODE":269.1818,"ARG_OF_PERICENTER":97.8578,"MEAN_ANOMALY":262.2702,"EPHEMERIS_TYPE":0,"CLASSIFICATION_TYPE":"U","NORAD_CAT_ID":56081,"ELEMENT_SET_NO":999,"REV_AT_EPOCH":14985,"BSTAR":-0.00028632,"MEAN_MOTION_DOT":-9.5e-07,"MEAN_MOTION_DDOT":0.0},{"OBJECT_NAME":"ONEWEB-0561","OBJECT_ID":"2023-068A","EPOCH":"2026-04-28T04:45:31.316832","MEAN_MOTION":13.2077357,"ECCENTRICITY":0.0002247,"INCLINATION":87.9141,"RA_OF_ASC_NODE":284.4182,"ARG_OF_PERICENTER":96.7228,"MEAN_ANOMALY":263.4161,"EPHEMERIS_TYPE":0,"CLASSIFICATION_TYPE":"U","NORAD_CAT_ID":56710,"ELEMENT_SET_NO":999,"REV_AT_EPOCH":14290,"BSTAR":3.6731000000000005e-05,"MEAN_MOTION_DOT":2.8e-07,"MEAN_MOTION_DDOT":0.0},{"OBJECT_NAME":"ONEWEB-0668","OBJECT_ID":"2023-068B","EPOCH":"2026-04-28T06:30:08.372736","MEAN_MOTION":13.16595543,"ECCENTRICITY":0.0001517,"INCLINATION":87.909,"RA_OF_ASC_NODE":238.6833,"ARG_OF_PERICENTER":115.2868,"MEAN_ANOMALY":244.8421,"EPHEMERIS_TYPE":0,"CLASSIFICATION_TYPE":"U","NORAD_CAT_ID":56711,"ELEMENT_SET_NO":999,"REV_AT_EPOCH":14521,"BSTAR":0.00012067000000000001,"MEAN_MOTION_DOT":5.9e-07,"MEAN_MOTION_DDOT":0.0},{"OBJECT_NAME":"ONEWEB-0676","OBJECT_ID":"2023-068C","EPOCH":"2026-04-28T06:41:32.379936","MEAN_MOTION":13.16593895,"ECCENTRICITY":0.0002234,"INCLINATION":87.9086,"RA_OF_ASC_NODE":238.6891,"ARG_OF_PERICENTER":106.518,"MEAN_ANOMALY":253.6197,"EPHEMERIS_TYPE":0,"CLASSIFICATION_TYPE":"U","NORAD_CAT_ID":56712,"ELEMENT_SET_NO":999,"REV_AT_EPOCH":14513,"BSTAR":-6.5864e-05,"MEAN_MOTION_DOT":-1.2e-07,"MEAN_MOTION_DDOT":0.0},{"OBJECT_NAME":"ONEWEB-0677","OBJECT_ID":"2023-068D","EPOCH":"2026-04-28T04:29:36.614976","MEAN_MOTION":13.20771666,"ECCENTRICITY":0.0001792,"INCLINATION":87.9142,"RA_OF_ASC_NODE":284.4127,"ARG_OF_PERICENTER":108.0408,"MEAN_ANOMALY":252.0921,"EPHEMERIS_TYPE":0,"CLASSIFICATION_TYPE":"U","NORAD_CAT_ID":56713,"ELEMENT_SET_NO":999,"REV_AT_EPOCH":14320,"BSTAR":-0.0006627,"MEAN_MOTION_DOT":-2.56e-06,"MEAN_MOTION_DDOT":0.0},{"OBJECT_NAME":"ONEWEB-0678","OBJECT_ID":"2023-068E","EPOCH":"2026-04-28T02:44:33.002304","MEAN_MOTION":13.15548947,"ECCENTRICITY":0.0001985,"INCLINATION":87.8962,"RA_OF_ASC_NODE":269.1754,"ARG_OF_PERICENTER":90.6845,"MEAN_ANOMALY":269.4513,"EPHEMERIS_TYPE":0,"CLASSIFICATION_TYPE":"U","NORAD_CAT_ID":56714,"ELEMENT_SET_NO":999,"REV_AT_EPOCH":14270,"BSTAR":0.00017469000000000002,"MEAN_MOTION_DOT":7.9e-07,"MEAN_MOTION_DDOT":0.0},{"OBJECT_NAME":"ONEWEB-0679","OBJECT_ID":"2023-068F","EPOCH":"2026-04-28T07:31:41.944224","MEAN_MOTION":13.16594575,"ECCENTRICITY":0.0001956,"INCLINATION":87.909,"RA_OF_ASC_NODE":238.6723,"ARG_OF_PERICENTER":120.034,"MEAN_ANOMALY":240.0985,"EPHEMERIS_TYPE":0,"CLASSIFICATION_TYPE":"U","NORAD_CAT_ID":56715,"ELEMENT_SET_NO":999,"REV_AT_EPOCH":14516,"BSTAR":0.00013644999999999998,"MEAN_MOTION_DOT":6.5e-07,"MEAN_MOTION_DDOT":0.0},{"OBJECT_NAME":"ONEWEB-0680","OBJECT_ID":"2023-068G","EPOCH":"2026-04-28T03:16:13.073088","MEAN_MOTION":13.21824143,"ECCENTRICITY":0.0001601,"INCLINATION":87.923,"RA_OF_ASC_NODE":253.9313,"ARG_OF_PERICENTER":116.2311,"MEAN_ANOMALY":243.8987,"EPHEMERIS_TYPE":0,"CLASSIFICATION_TYPE":"U","NORAD_CAT_ID":56716,"ELEMENT_SET_NO":999,"REV_AT_EPOCH":14448,"BSTAR":0.00010102,"MEAN_MOTION_DOT":5.5e-07,"MEAN_MOTION_DDOT":0.0},{"OBJECT_NAME":"ONEWEB-0681","OBJECT_ID":"2023-068H","EPOCH":"2026-04-28T02:48:21.614112","MEAN_MOTION":13.21828117,"ECCENTRICITY":0.0002818,"INCLINATION":87.9221,"RA_OF_ASC_NODE":253.9394,"ARG_OF_PERICENTER":109.4863,"MEAN_ANOMALY":250.6576,"EPHEMERIS_TYPE":0,"CLASSIFICATION_TYPE":"U","NORAD_CAT_ID":56717,"ELEMENT_SET_NO":999,"REV_AT_EPOCH":14447,"BSTAR":-6.5006e-05,"MEAN_MOTION_DOT":-1.4e-07,"MEAN_MOTION_DDOT":0.0},{"OBJECT_NAME":"ONEWEB-0682","OBJECT_ID":"2023-068J","EPOCH":"2026-04-28T03:18:45.519840","MEAN_MOTION":13.1555026,"ECCENTRICITY":0.0001543,"INCLINATION":87.8961,"RA_OF_ASC_NODE":269.1723,"ARG_OF_PERICENTER":113.7504,"MEAN_ANOMALY":246.3789,"EPHEMERIS_TYPE":0,"CLASSIFICATION_TYPE":"U","NORAD_CAT_ID":56718,"ELEMENT_SET_NO":999,"REV_AT_EPOCH":14287,"BSTAR":-0.00034700999999999997,"MEAN_MOTION_DOT":-1.18e-06,"MEAN_MOTION_DDOT":0.0},{"OBJECT_NAME":"ONEWEB-0683","OBJECT_ID":"2023-068K","EPOCH":"2026-04-28T03:53:00.614688","MEAN_MOTION":13.15548543,"ECCENTRICITY":0.0001584,"INCLINATION":87.896,"RA_OF_ASC_NODE":269.1657,"ARG_OF_PERICENTER":103.044,"MEAN_ANOMALY":257.0867,"EPHEMERIS_TYPE":0,"CLASSIFICATION_TYPE":"U","NORAD_CAT_ID":56719,"ELEMENT_SET_NO":999,"REV_AT_EPOCH":14284,"BSTAR":0.00023246,"MEAN_MOTION_DOT":1e-06,"MEAN_MOTION_DDOT":0.0}]