ONEWEB-0635             
1 56076U 23043AG  26118.17448884  .00000174  00000+0  42760-3 0  9991
2 56076  87.8960 269.1616 0002079 102.0524 258.0840 13.15548232149855
ONEWEB-0636             
1 56077U 23043AH  26118.16656370 -.00000028  00000+0 -10730-3 0  9994
2 56077  87.8951 269.1732 0002010 101.8400 258.2956 13.15547369149838
ONEWEB-0637             
1 56078U 23043AJ  26117.93205001  .00000098  00000+0  22494-3 0  9995
2 56078  87.8950 269.2374 0001787 108.0743 252.0582 13.15547824149822
ONEWEB-0647             
1 56079U 23043AK  26118.15545945  .00000036  00000+0  62391-4 0  9998
2 56079  87.8950 269.2051 0001981  96.3517 263.7839 13.15549557149840
ONEWEB-0651             
1 56080U 23043AL  26118.30283172  .00000072  00000+0  15617-3 0  9996
2 56080  87.8950 269.1699 0001947 105.4526 254.6819 13.15548497151069
ONEWEB-0718             
1 56081U 23043AM  26118.14596797 -.00000095  00000+0 -28632-3 0  9997
2 56081  87.8950 269.1818 0001313  97.8578 262.2702 13.15547814149853
ONEWEB-0561             
1 56710U 23068A   26118.19827913  .00000028  00000+0  36731-4 0  9999
2 56710  87.9141 284.4182 0002247  96.7228 263.4161 13.20773570142903
ONEWEB-0668             
1 56711U 23068B   26118.27093024  .00000059  00000+0  12067-3 0  9996
2 56711  87.9090 238.6833 0001517 115.2868 244.8421 13.16595543145213
ONEWEB-0676             
1 56712U 23068C   26118.27884699 -.00000012  00000+0 -65864-4 0  9998
2 56712  87.9086 238.6891 0002234 106.5180 253.6197 13.16593895145137
ONEWEB-0677             
1 56713U 23068D   26118.18722934 -.00000256  00000+0 -66270-3 0  9993
2 56713  87.9142 284.4127 0001792 108.0408 252.0921 13.20771666143203
ONEWEB-0678             
1 56714U 23068E   26118.11427086  .00000079  00000+0  17469-3 0  9994
2 56714  87.8962 269.1754 0001985  90.6845 269.4513 13.15548947142705
ONEWEB-0679             
1 56715U 23068F   26118.31367991  .00000065  00000+0  13645-3 0  9992
2 56715  87.9090 238.6723 0001956 120.0340 240.0985 13.16594575145162
ONEWEB-0680             
1 56716U 23068G   26118.13626242  .00000055  00000+0  10102-3 0  9994
2 56716  87.9230 253.9313 0001601 116.2311 243.8987 13.21824143144486
ONEWEB-0681             
1 56717U 23068H   26118.11691683 -.00000014  00000+0 -65006-4 0  9995
2 56717  87.9221 253.9394 0002818 109.4863 250.6576 13.21828117144477
ONEWEB-0682             
1 56718U 23068J   26118.13802685 -.00000118  00000+0 -34701-3 0  9996
2 56718  87.8961 269.1723 0001543 113.7504 246.3789 13.15550260142871
ONEWEB-0683             
1 56719U 23068K   26118.16181267  .00000100  00000+0  23246-3 0  9997
2 56719  87.8960 269.1657 0001584 103.0440 257.0867 13.15548543142847
